STARLINK-3120           
1 49419U 21104M   26176.99603259  .00000783  00000+0  67304-4 0  9991
2 49419  53.1605 102.7688 0001453  92.1357 267.9801 15.08843908254977
STARLINK-3110           
1 49420U 21104N   26177.13346110  .00170547  00000+0  99828-2 0  9990
2 49420  53.1611 102.1255 0001448  71.8598 288.2552 15.10606230254994
STARLINK-3161           
1 49422U 21104Q   26176.96392970  .00002707  00000+0  18811-3 0  9993
2 49422  53.1611 103.2317 0001742  82.2223 277.8966 15.08838442254964
STARLINK-3135           
1 49424U 21104S   26176.99235719  .00000378  00000+0  41829-4 0  9993
2 49424  53.1610 102.7854 0001344  84.2667 275.8478 15.08837496254972
STARLINK-3138           
1 49430U 21104Y   26176.99703272  .00000119  00000+0  25586-4 0  9999
2 49430  53.1606 103.0393 0001594  99.7371 260.3800 15.08845880254981
STARLINK-4667           
1 53707U 22107H   26176.98867951  .00003329  00000+0  22715-3 0  9995
2 53707  53.1609 102.8144 0001258  96.7288 263.3847 15.08842863211411
