{
  "schema": "int-telemetry-real-tle-snapshot/v1",
  "source": "celestrak",
  "group": "STARLINK",
  "format": "celestrak-gp-json",
  "source_url": "https://celestrak.org/NORAD/elements/gp.php?NAME=STARLINK&FORMAT=JSON",
  "downloaded_at": "2026-07-01T09:45:20.184Z",
  "generated_at": "2026-07-01T09:45:20.328Z",
  "fingerprint": "b8e2cd48",
  "shell_id": "starlink-real-53.2deg-545km",
  "catalog_count": 10658,
  "shell_count": 1056,
  "selected_count": 64,
  "mean_altitude_km": 544.89,
  "mean_inclination_deg": 53.1617,
  "mean_mean_motion_rev_per_day": 15.09493346,
  "layout": {
    "planes": 8,
    "satellites_per_plane": 8,
    "selection_strategy": "target-shell-raan-clusters-even-slot-sampling",
    "raan_cluster_threshold_deg": 1.5,
    "target_inclination_deg": 53,
    "target_altitude_km": 550,
    "selected_shell_key": "53.0deg-550km",
    "target_shell_distance": 21.03
  },
  "satellites": [
    {
      "satellite_id": "P04-S01",
      "norad_id": 53707,
      "satellite_name": "STARLINK-4667",
      "cospar_id": "2022-107H",
      "shell_id": "starlink-real-53.2deg-545km",
      "plane_id": 3,
      "slot_id": 0,
      "epoch": "2026-06-25T23:43:41.909664",
      "inclination": 53.1609,
      "raan": 102.81439999999998,
      "eccentricity": 0.0001258,
      "argument_of_perigee": 96.72879999999998,
      "mean_anomaly": 263.38470000000007,
      "mean_motion": 15.08842863,
      "bstar": 0.00022715,
      "status": "active",
      "raw_omm": {
        "OBJECT_NAME": "STARLINK-4667",
        "OBJECT_ID": "2022-107H",
        "EPOCH": "2026-06-25T23:43:41.909664",
        "MEAN_MOTION": 15.08842863,
        "ECCENTRICITY": 0.0001258,
        "INCLINATION": 53.1609,
        "RA_OF_ASC_NODE": 102.8144,
        "ARG_OF_PERICENTER": 96.7288,
        "MEAN_ANOMALY": 263.3847,
        "EPHEMERIS_TYPE": 0,
        "CLASSIFICATION_TYPE": "U",
        "NORAD_CAT_ID": 53707,
        "ELEMENT_SET_NO": 999,
        "REV_AT_EPOCH": 21141,
        "BSTAR": 0.00022715,
        "MEAN_MOTION_DOT": 0.00003329,
        "MEAN_MOTION_DDOT": 0
      },
      "source": "celestrak",
      "source_url": "https://celestrak.org/NORAD/elements/gp.php?NAME=STARLINK&FORMAT=JSON",
      "catalog_fingerprint": "b8e2cd48"
    },
    {
      "satellite_id": "P04-S02",
      "norad_id": 49424,
      "satellite_name": "STARLINK-3135",
      "cospar_id": "2021-104S",
      "shell_id": "starlink-real-53.2deg-545km",
      "plane_id": 3,
      "slot_id": 1,
      "epoch": "2026-06-25T23:48:59.661216",
      "inclination": 53.161,
      "raan": 102.78539999999998,
      "eccentricity": 0.0001344,
      "argument_of_perigee": 84.26670000000001,
      "mean_anomaly": 275.8478,
      "mean_motion": 15.08837496,
      "bstar": 0.000041829,
      "status": "active",
      "raw_omm": {
        "OBJECT_NAME": "STARLINK-3135",
        "OBJECT_ID": "2021-104S",
        "EPOCH": "2026-06-25T23:48:59.661216",
        "MEAN_MOTION": 15.08837496,
        "ECCENTRICITY": 0.0001344,
        "INCLINATION": 53.161,
        "RA_OF_ASC_NODE": 102.7854,
        "ARG_OF_PERICENTER": 84.2667,
        "MEAN_ANOMALY": 275.8478,
        "EPHEMERIS_TYPE": 0,
        "CLASSIFICATION_TYPE": "U",
        "NORAD_CAT_ID": 49424,
        "ELEMENT_SET_NO": 999,
        "REV_AT_EPOCH": 25497,
        "BSTAR": 0.000041829,
        "MEAN_MOTION_DOT": 0.00000378,
        "MEAN_MOTION_DDOT": 0
      },
      "source": "celestrak",
      "source_url": "https://celestrak.org/NORAD/elements/gp.php?NAME=STARLINK&FORMAT=JSON",
      "catalog_fingerprint": "b8e2cd48"
    },
    {
      "satellite_id": "P04-S03",
      "norad_id": 49420,
      "satellite_name": "STARLINK-3110",
      "cospar_id": "2021-104N",
      "shell_id": "starlink-real-53.2deg-545km",
      "plane_id": 3,
      "slot_id": 2,
      "epoch": "2026-06-26T03:12:11.039040",
      "inclination": 53.1611,
      "raan": 102.12549999999999,
      "eccentricity": 0.0001448,
      "argument_of_perigee": 71.8598,
      "mean_anomaly": 288.25520000000006,
      "mean_motion": 15.1060623,
      "bstar": 0.0099828,
      "status": "active",
      "raw_omm": {
        "OBJECT_NAME": "STARLINK-3110",
        "OBJECT_ID": "2021-104N",
        "EPOCH": "2026-06-26T03:12:11.039040",
        "MEAN_MOTION": 15.1060623,
        "ECCENTRICITY": 0.0001448,
        "INCLINATION": 53.1611,
        "RA_OF_ASC_NODE": 102.1255,
        "ARG_OF_PERICENTER": 71.8598,
        "MEAN_ANOMALY": 288.2552,
        "EPHEMERIS_TYPE": 0,
        "CLASSIFICATION_TYPE": "U",
        "NORAD_CAT_ID": 49420,
        "ELEMENT_SET_NO": 999,
        "REV_AT_EPOCH": 25499,
        "BSTAR": 0.0099828,
        "MEAN_MOTION_DOT": 0.00170547,
        "MEAN_MOTION_DDOT": 0
      },
      "source": "celestrak",
      "source_url": "https://celestrak.org/NORAD/elements/gp.php?NAME=STARLINK&FORMAT=JSON",
      "catalog_fingerprint": "b8e2cd48"
    },
    {
      "satellite_id": "P04-S04",
      "norad_id": 49419,
      "satellite_name": "STARLINK-3120",
      "cospar_id": "2021-104M",
      "shell_id": "starlink-real-53.2deg-545km",
      "plane_id": 3,
      "slot_id": 3,
      "epoch": "2026-06-25T23:54:17.215776",
      "inclination": 53.1605,
      "raan": 102.7688,
      "eccentricity": 0.0001453,
      "argument_of_perigee": 92.13569999999999,
      "mean_anomaly": 267.9801,
      "mean_motion": 15.08843908,
      "bstar": 0.000067304,
      "status": "active",
      "raw_omm": {
        "OBJECT_NAME": "STARLINK-3120",
        "OBJECT_ID": "2021-104M",
        "EPOCH": "2026-06-25T23:54:17.215776",
        "MEAN_MOTION": 15.08843908,
        "ECCENTRICITY": 0.0001453,
        "INCLINATION": 53.1605,
        "RA_OF_ASC_NODE": 102.7688,
        "ARG_OF_PERICENTER": 92.1357,
        "MEAN_ANOMALY": 267.9801,
        "EPHEMERIS_TYPE": 0,
        "CLASSIFICATION_TYPE": "U",
        "NORAD_CAT_ID": 49419,
        "ELEMENT_SET_NO": 999,
        "REV_AT_EPOCH": 25497,
        "BSTAR": 0.000067304,
        "MEAN_MOTION_DOT": 0.00000783,
        "MEAN_MOTION_DDOT": 0
      },
      "source": "celestrak",
      "source_url": "https://celestrak.org/NORAD/elements/gp.php?NAME=STARLINK&FORMAT=JSON",
      "catalog_fingerprint": "b8e2cd48"
    },
    {
      "satellite_id": "P04-S05",
      "norad_id": 49430,
      "satellite_name": "STARLINK-3138",
      "cospar_id": "2021-104Y",
      "shell_id": "starlink-real-53.2deg-545km",
      "plane_id": 3,
      "slot_id": 4,
      "epoch": "2026-06-25T23:55:43.627008",
      "inclination": 53.1606,
      "raan": 103.03930000000003,
      "eccentricity": 0.0001594,
      "argument_of_perigee": 99.7371,
      "mean_anomaly": 260.38,
      "mean_motion": 15.0884588,
      "bstar": 0.000025586,
      "status": "active",
      "raw_omm": {
        "OBJECT_NAME": "STARLINK-3138",
        "OBJECT_ID": "2021-104Y",
        "EPOCH": "2026-06-25T23:55:43.627008",
        "MEAN_MOTION": 15.0884588,
        "ECCENTRICITY": 0.0001594,
        "INCLINATION": 53.1606,
        "RA_OF_ASC_NODE": 103.0393,
        "ARG_OF_PERICENTER": 99.7371,
        "MEAN_ANOMALY": 260.38,
        "EPHEMERIS_TYPE": 0,
        "CLASSIFICATION_TYPE": "U",
        "NORAD_CAT_ID": 49430,
        "ELEMENT_SET_NO": 999,
        "REV_AT_EPOCH": 25498,
        "BSTAR": 0.000025586,
        "MEAN_MOTION_DOT": 0.00000119,
        "MEAN_MOTION_DDOT": 0
      },
      "source": "celestrak",
      "source_url": "https://celestrak.org/NORAD/elements/gp.php?NAME=STARLINK&FORMAT=JSON",
      "catalog_fingerprint": "b8e2cd48"
    },
    {
      "satellite_id": "P04-S06",
      "norad_id": 49422,
      "satellite_name": "STARLINK-3161",
      "cospar_id": "2021-104Q",
      "shell_id": "starlink-real-53.2deg-545km",
      "plane_id": 3,
      "slot_id": 5,
      "epoch": "2026-06-25T23:08:03.526080",
      "inclination": 53.1611,
      "raan": 103.23169999999999,
      "eccentricity": 0.0001742,
      "argument_of_perigee": 82.22230000000002,
      "mean_anomaly": 277.89660000000003,
      "mean_motion": 15.08838442,
      "bstar": 0.00018811,
      "status": "active",
      "raw_omm": {
        "OBJECT_NAME": "STARLINK-3161",
        "OBJECT_ID": "2021-104Q",
        "EPOCH": "2026-06-25T23:08:03.526080",
        "MEAN_MOTION": 15.08838442,
        "ECCENTRICITY": 0.0001742,
        "INCLINATION": 53.1611,
        "RA_OF_ASC_NODE": 103.2317,
        "ARG_OF_PERICENTER": 82.2223,
        "MEAN_ANOMALY": 277.8966,
        "EPHEMERIS_TYPE": 0,
        "CLASSIFICATION_TYPE": "U",
        "NORAD_CAT_ID": 49422,
        "ELEMENT_SET_NO": 999,
        "REV_AT_EPOCH": 25496,
        "BSTAR": 0.00018811,
        "MEAN_MOTION_DOT": 0.00002707,
        "MEAN_MOTION_DDOT": 0
      },
      "source": "celestrak",
      "source_url": "https://celestrak.org/NORAD/elements/gp.php?NAME=STARLINK&FORMAT=JSON",
      "catalog_fingerprint": "b8e2cd48"
    }
  ]
}